NORAD_CAT_ID,OBJECT_NAME,OBJECT_TYPE,EPOCH,MEAN_MOTION,ECCENTRICITY,INCLINATION,RA_OF_ASC_NODE,ARG_OF_PERICENTER,MEAN_ANOMALY,BSTAR,MEAN_MOTION_DOT,MEAN_MOTION_DDOT,TLE_LINE0,TLE_LINE1,TLE_LINE2,SEMIMAJOR_AXIS,PERIOD,APOGEE,PERIGEE,DECAYED
50832.0,STARLINK-3328,PAYLOAD,2023-03-01 08:36:03,15.08804976,0.0001608,53.2129,96.6579,78.4021,281.7152,-0.00041828,-6.932e-05,0.0,0 STARLINK-3328,1 50832U 22001AF  23060.35837648 -.00006932  00000-0 -41828-3 0  9996,2 50832  53.2129  96.6579 0001608  78.4021 281.7152 15.08804976 64803,6917.987,95.44,540.965,538.74,0.0
50832.0,STARLINK-3328,PAYLOAD,2023-03-01 19:43:46,15.08812518,0.0001727,53.2129,94.5765,76.3295,283.7889,0.00094834,0.00014826,0.0,0 STARLINK-3328,1 50832U 22001AF  23060.82206875  .00014826  00000-0  94834-3 0  9994,2 50832  53.2129  94.5765 0001727  76.3295 283.7889 15.08812518 63628,6917.964,95.439,541.024,538.635,0.0
50832.0,STARLINK-3328,PAYLOAD,2023-03-02 02:05:19,15.08827911,0.0001628,53.2131,93.3865,75.6732,284.4441,0.0014122,0.00022251,0.0,0 STARLINK-3328,1 50832U 22001AF  23061.08703153  .00022251  00000-0  14122-2 0  9996,2 50832  53.2131  93.3865 0001628  75.6732 284.4441 15.08827911 64915,6917.917,95.438,540.909,538.656,0.0
50832.0,STARLINK-3328,PAYLOAD,2023-03-02 08:26:52,15.08846537,0.0001705,53.2132,92.1975,75.3539,284.7642,0.0016138,0.00025494,0.0,0 STARLINK-3328,1 50832U 22001AF  23061.35199081  .00025494  00000-0  16138-2 0  9996,2 50832  53.2132  92.1975 0001705  75.3539 284.7642 15.08846537 63700,6917.86,95.437,540.905,538.546,0.0
50832.0,STARLINK-3328,PAYLOAD,2023-03-03 08:17:37,15.08884589,0.0001794,53.2134,87.7368,73.2919,286.827,0.0016998,0.00026901,0.0,0 STARLINK-3328,1 50832U 22001AF  23062.34557719  .00026901  00000-0  16998-2 0  9990,2 50832  53.2134  87.7368 0001794  73.2919 286.8270 15.08884589 65100,6917.744,95.435,540.85,538.368,0.0
50832.0,STARLINK-3328,PAYLOAD,2023-03-04 06:33:01,15.08865437,0.0001494,53.2137,83.5714,94.3623,265.754,0.00064382,9.98e-05,0.0,0 STARLINK-3328,1 50832U 22001AF  23063.27292933  .00009980  00000-0  64382-3 0  9996,2 50832  53.2137  83.5714 0001494  94.3623 265.7540 15.08865437 65247,6917.803,95.436,540.701,538.634,0.0
50832.0,STARLINK-3328,PAYLOAD,2023-03-04 08:08:24,15.08863901,0.0001549,53.2145,83.2743,99.8379,260.2788,0.00063261,9.801e-05,0.0,0 STARLINK-3328,1 50832U 22001AF  23063.33916868  .00009801  00000-0  63261-3 0  9990,2 50832  53.2145  83.2743 0001549  99.8379 260.2788 15.08863901 64005,6917.807,95.436,540.744,538.601,0.0
50832.0,STARLINK-3328,PAYLOAD,2023-03-04 17:40:43,15.08838753,0.0001945,53.2151,81.4953,105.6881,254.4326,-2.2685e-05,-6.49e-06,0.0,0 STARLINK-3328,1 50832U 22001AF  23063.73661206 -.00000649  00000-0 -22685-4 0  9996,2 50832  53.2151  81.4953 0001945 105.6881 254.4326 15.08838753 65314,6917.884,95.438,541.095,538.404,0.0
50832.0,STARLINK-3328,PAYLOAD,2023-03-05 04:48:25,15.08837555,0.000204,53.2154,79.4116,107.3014,252.8201,-0.00010181,-1.908e-05,0.0,0 STARLINK-3328,1 50832U 22001AF  23064.20029419 -.00001908  00000-0 -10181-3 0  9999,2 50832  53.2154  79.4116 0002040 107.3014 252.8201 15.08837555 64131,6917.888,95.438,541.164,538.342,0.0
50832.0,STARLINK-3328,PAYLOAD,2023-03-05 17:31:30,15.08840212,0.0001853,53.2155,77.0338,104.4342,255.6856,3.3135e-05,2.39e-06,0.0,0 STARLINK-3328,1 50832U 22001AF  23064.73021550  .00000239  00000-0  33135-4 0  9994,2 50832  53.2155  77.0338 0001853 104.4342 255.6856 15.08840212 64215,6917.88,95.438,541.027,538.463,0.0
50832.0,STARLINK-3328,PAYLOAD,2023-03-06 04:39:12,15.08842153,0.0001799,53.2161,74.9502,106.3955,253.7235,0.00016715,2.373e-05,0.0,0 STARLINK-3328,1 50832U 22001AF  23065.19389700  .00002373  00000-0  16715-3 0  9994,2 50832  53.2161  74.9502 0001799 106.3955 253.7235 15.08842153 65533,6917.874,95.437,540.983,538.494,0.0
50832.0,STARLINK-3328,PAYLOAD,2023-03-06 06:14:35,15.08844234,0.0001727,53.2157,74.6539,106.2661,253.8521,0.00019154,2.762e-05,0.0,0 STARLINK-3328,1 50832U 22001AF  23065.26013618  .00002762  00000-0  19154-3 0  9996,2 50832  53.2157  74.6539 0001727 106.2661 253.8521 15.08844234 64292,6917.867,95.437,540.927,538.538,0.0
50832.0,STARLINK-3328,PAYLOAD,2023-03-07 04:30:00,15.08830429,0.0001592,53.2137,70.4856,103.8855,256.2314,2.0203e-05,3.3e-07,0.0,0 STARLINK-3328,1 50832U 22001AF  23066.18750430  .00000033  00000-0  20203-4 0  9995,2 50832  53.2137  70.4856 0001592 103.8855 256.2314 15.08830429 65686,6917.91,95.438,540.876,538.673,0.0
50832.0,STARLINK-3328,PAYLOAD,2023-03-07 17:13:05,15.08841609,0.0001382,53.2151,68.1072,85.985,274.13,0.00016742,2.378e-05,0.0,0 STARLINK-3328,1 50832U 22001AF  23066.71742410  .00002378  00000-0  16742-3 0  9999,2 50832  53.2151  68.1072 0001382  85.9850 274.1300 15.08841609 65763,6917.875,95.437,540.697,538.784,0.0
50832.0,STARLINK-3328,PAYLOAD,2023-03-08 17:03:52,15.08844886,0.0001256,53.215,63.6463,104.0174,256.0958,0.00024943,3.685e-05,0.0,0 STARLINK-3328,1 50832U 22001AF  23067.71102278  .00003685  00000-0  24943-3 0  9996,2 50832  53.2150  63.6463 0001256 104.0174 256.0958 15.08844886 64664,6917.865,95.437,540.599,538.862,0.0
50832.0,STARLINK-3328,PAYLOAD,2023-03-08 23:25:25,15.08844003,0.0001168,53.2152,62.4565,93.8193,266.2933,0.00021881,3.197e-05,0.0,0 STARLINK-3328,1 50832U 22001AF  23067.97598530  .00003197  00000-0  21881-3 0  9990,2 50832  53.2152  62.4565 0001168  93.8193 266.2933 15.08844003 65954,6917.868,95.437,540.541,538.925,0.0
50832.0,STARLINK-3328,PAYLOAD,2023-03-09 16:54:39,15.08845231,0.0001167,53.2147,59.1877,84.4132,275.6993,0.00012209,1.656e-05,0.0,0 STARLINK-3328,1 50832U 22001AF  23068.70462116  .00001656  00000-0  12209-3 0  9994,2 50832  53.2147  59.1877 0001167  84.4132 275.6993 15.08845231 64813,6917.864,95.437,540.537,538.922,0.0
50832.0,STARLINK-3328,PAYLOAD,2023-03-10 05:37:43,15.08856265,0.0001236,53.2151,56.8056,100.1317,259.9815,0.00026343,3.909e-05,0.0,0 STARLINK-3328,1 50832U 22001AF  23069.23453441  .00003909  00000-0  26343-3 0  9991,2 50832  53.2151  56.8056 0001236 100.1317 259.9815 15.08856265 66144,6917.831,95.437,540.551,538.841,0.0
50832.0,STARLINK-3328,PAYLOAD,2023-03-10 08:48:29,15.08860897,0.0001309,53.2152,56.2103,101.173,258.941,0.00035454,5.362e-05,0.0,0 STARLINK-3328,1 50832U 22001AF  23069.36701201  .00005362  00000-0  35454-3 0  9993,2 50832  53.2152  56.2103 0001309 101.1730 258.9410 15.08860897 64912,6917.817,95.436,540.587,538.776,0.0
50832.0,STARLINK-3328,PAYLOAD,2023-03-11 05:28:31,15.08836223,0.0001232,53.2148,52.3471,76.0095,284.1034,7.9628e-05,9.8e-06,0.0,0 STARLINK-3328,1 50832U 22001AF  23070.22814569  .00000980  00000-0  79628-4 0  9995,2 50832  53.2148  52.3471 0001232  76.0095 284.1034 15.08836223 66293,6917.892,95.438,540.609,538.905,0.0
50832.0,STARLINK-3328,PAYLOAD,2023-03-11 08:39:18,15.08837519,0.0001282,53.216,51.7501,77.2482,282.8653,0.00035118,5.305e-05,0.0,0 STARLINK-3328,1 50832U 22001AF  23070.36062650  .00005305  00000-0  35118-3 0  9997,2 50832  53.2160  51.7501 0001282  77.2482 282.8653 15.08837519 65067,6917.888,95.438,540.64,538.866,0.0
50832.0,STARLINK-3328,PAYLOAD,2023-03-12 08:30:05,15.08847277,0.00014,53.216,47.2909,73.4848,286.6298,0.00076454,0.00011903,0.0,0 STARLINK-3328,1 50832U 22001AF  23071.35422629  .00011903  00000-0  76454-3 0  9992,2 50832  53.2160  47.2909 0001400  73.4848 286.6298 15.08847277 66469,6917.858,95.437,540.692,538.755,0.0
50832.0,STARLINK-3328,PAYLOAD,2023-03-12 22:48:33,15.08841719,0.0001018,53.2155,44.6129,90.6116,269.4993,0.00010463,1.378e-05,0.0,0 STARLINK-3328,1 50832U 22001AF  23071.95038659  .00001378  00000-0  10463-3 0  9997,2 50832  53.2155  44.6129 0001018  90.6116 269.4993 15.08841719 65300,6917.875,95.437,540.444,539.036,0.0
50832.0,STARLINK-3328,PAYLOAD,2023-03-13 06:45:28,15.08847777,0.0001746,53.2162,43.1269,83.6844,276.4347,0.00023845,3.51e-05,0.0,0 STARLINK-3328,1 50832U 22001AF  23072.28158520  .00003510  00000-0  23845-3 0  9992,2 50832  53.2162  43.1269 0001746  83.6844 276.4347 15.08847777 65351,6917.857,95.437,540.929,538.514,0.0
50832.0,STARLINK-3328,PAYLOAD,2023-03-14 05:00:53,15.08836105,0.0001366,53.2169,38.9653,100.2779,259.8367,3.8996e-05,3.33e-06,0.0,0 STARLINK-3328,1 50832U 22001AF  23073.20894938  .00000333  00000-0  38996-4 0  9999,2 50832  53.2169  38.9653 0001366 100.2779 259.8367 15.08836105 66742,6917.892,95.438,540.702,538.812,0.0
50832.0,STARLINK-3328,PAYLOAD,2023-03-14 06:36:16,15.0884118,0.0001505,53.2172,38.6679,106.2856,253.8302,0.00018985,2.735e-05,0.0,0 STARLINK-3328,1 50832U 22001AF  23073.27518824  .00002735  00000-0  18985-3 0  9996,2 50832  53.2172  38.6679 0001505 106.2856 253.8302 15.08841180 65503,6917.877,95.437,540.783,538.701,0.0
50832.0,STARLINK-3328,PAYLOAD,2023-03-14 14:33:12,15.08844097,0.000155,53.2173,37.1811,105.4163,254.7001,0.00059565,9.206e-05,0.0,0 STARLINK-3328,1 50832U 22001AF  23073.60639061  .00009206  00000-0  59565-3 0  9999,2 50832  53.2173  37.1811 0001550 105.4163 254.7001 15.08844097 65559,6917.868,95.437,540.805,538.661,0.0
50832.0,STARLINK-3328,PAYLOAD,2023-03-15 04:51:39,15.08864107,0.000147,53.2167,34.5061,109.4089,250.7062,0.0015333,0.00024215,0.0,0 STARLINK-3328,1 50832U 22001AF  23074.20254409  .00024215  00000-0  15333-2 0  9996,2 50832  53.2167  34.5061 0001470 109.4089 250.7062 15.08864107 66897,6917.807,95.436,540.689,538.655,0.0
50832.0,STARLINK-3328,PAYLOAD,2023-03-15 09:37:48,15.08894275,0.0001344,53.216,33.6111,110.7436,249.37,0.0021832,0.00034681,0.0,0 STARLINK-3328,1 50832U 22001AF  23074.40125504  .00034681  00000-0  21832-2 0  9990,2 50832  53.2160  33.6111 0001344 110.7436 249.3700 15.08894275 66923,6917.714,95.434,540.509,538.65,0.0
50832.0,STARLINK-3328,PAYLOAD,2023-03-15 20:45:31,15.0882519,8.64e-05,53.2171,31.5316,101.0491,259.0598,-0.00080679,-0.00013099,0.0,0 STARLINK-3328,1 50832U 22001AF  23074.86494285 -.00013099  00000-0 -80679-3 0  9992,2 50832  53.2171  31.5316 0000864 101.0491 259.0598 15.08825190 66999,6917.926,95.438,540.388,539.193,0.0
